STARLINK-2695           
1 48644U 21044G   26194.44027118  .00000204  00000+0  18334-4 0  9994
2 48644  53.1598 248.9511 0001082  79.3103 280.8020 15.31702339283099
STARLINK-2732           
1 48646U 21044J   26194.41694600  .00001100  00000+0  47215-4 0  9995
2 48646  53.1585 248.8980 0001003  75.5475 284.5637 15.31695823283093
STARLINK-2521           
1 48648U 21044L   26194.48687124  .00000113  00000+0  15400-4 0  9991
2 48648  53.1596 248.6867 0001356  82.8062 277.3094 15.31697093283103
STARLINK-2673           
1 48649U 21044M   26194.46820682  .00000831  00000+0  38533-4 0  9997
2 48649  53.1588 248.5916 0001058  88.1702 271.9420 15.31693051283099
STARLINK-2672           
1 48650U 21044N   26194.47755359  .00000123  00000+0  15738-4 0  9994
2 48650  53.1581 248.6766 0000979 114.4961 245.6143 15.31689291283090
STARLINK-2731           
1 48651U 21044P   26194.47288536  .00000830  00000+0  38511-4 0  9992
2 48651  53.1590 248.6969 0001129  68.6773 291.4349 15.31699914283095
STARLINK-2727           
1 48652U 21044Q   26194.53489782  .00109506  00000+0  50331-3 0  9999
2 48652  53.0408 218.2697 0010194  20.7561 339.3873 15.82761046283490
STARLINK-2720           
1 48653U 21044R   26194.52414897  .00002673  00000+0  97926-4 0  9993
2 48653  53.1592 248.3806 0001030  88.7428 271.3692 15.31682320283100
STARLINK-2657           
1 48655U 21044T   26194.46358360  .00005325  00000+0  18341-3 0  9990
2 48655  53.1603 248.7786 0005601  32.5476 327.5870 15.31670810283095
STARLINK-2701           
1 48656U 21044U   26194.44490567  .00001428  00000+0  57783-4 0  9999
2 48656  53.1601 248.7226 0001107  79.6280 280.4846 15.31700083283091
STARLINK-2734           
1 48657U 21044V   26194.38899204  .00001356  00000+0  55456-4 0  9999
2 48657  53.1593 249.0984 0001223  93.0273 267.0869 15.31698528283083
STARLINK-2647           
1 48658U 21044W   26194.36575889  .00002216  00000+0  83151-4 0  9997
2 48658  53.1599 249.7272 0001173  76.4958 283.6174 15.31697111283075
STARLINK-2717           
1 48659U 21044X   26192.21707032  .00000369  00000+0  23651-4 0  9993
2 48659  53.1599 259.1101 0000847  86.8573 273.2526 15.31702884282751
STARLINK-2726           
1 48662U 21044AA  26194.44114551  .00000547  00000+0  31276-4 0  9992
2 48662  53.1570 250.0682 0000960  66.3758 293.7343 15.29353054283069
STARLINK-2667           
1 48663U 21044AB  26194.36366829  .00000588  00000+0  30700-4 0  9997
2 48663  53.1583 239.1581 0001147  94.4306 265.6826 15.31694969283227
STARLINK-2666           
1 48666U 21044AE  26194.41745984  .00005474  00000+0  20179-3 0  9996
2 48666  53.1596 250.2576 0001420  74.0955 286.0202 15.29371535283054
STARLINK-2735           
1 48667U 21044AF  26194.42601448  .00002497  00000+0  98799-4 0  9990
2 48667  53.1615 250.1158 0000892 105.3851 254.7248 15.29365502283067
STARLINK-2738           
1 48668U 21044AG  26194.42426196  .00000240  00000+0  19483-4 0  9993
2 48668  53.1591 238.9269 0001003  83.4578 276.6538 15.31703642283233
STARLINK-2707           
1 48669U 21044AH  26194.43360573  .00003105  00000+0  11182-3 0  9991
2 48669  53.1589 239.0117 0001069  82.3803 277.7320 15.31683062283229
STARLINK-2763           
1 48670U 21044AJ  26194.50819213  .00000662  00000+0  33100-4 0  9991
2 48670  53.1588 238.7897 0001095  86.5350 273.5777 15.31693566283234
STARLINK-2745           
1 48671U 21044AK  26194.48490752 -.00000400  00000+0 -15112-5 0  9998
2 48671  53.1600 249.9431 0001389 135.4704 224.6408 15.29360290283062
STARLINK-2705           
1 48672U 21044AL  26194.51286903  .00000820  00000+0  38186-4 0  9993
2 48672  53.1592 238.8865 0001179  79.3265 280.7869 15.31694775283230
STARLINK-2711           
1 48673U 21044AM  26194.47591029 -.00000295  00000+0  21135-5 0  9991
2 48673  53.1552 249.9288 0001308  79.9652 280.1496 15.29352289283068
STARLINK-2712           
1 48674U 21044AN  26194.47331010  .00000729  00000+0  37579-4 0  9993
2 48674  53.1588 249.9827 0001177  74.8327 285.2804 15.29351295283069
STARLINK-2746           
1 48676U 21044AQ  26194.40163693  .00001447  00000+0  62465-4 0  9998
2 48676  53.1583 250.3190 0001025  72.8167 287.2946 15.29347286283050
STARLINK-2615           
1 48678U 21044AS  26194.50347715  .00008094  00000+0  27239-3 0  9994
2 48678  53.1570 238.4064 0001489  69.5784 290.5377 15.31690714283243
STARLINK-2648           
1 48679U 21044AT  26194.44920785 -.00000084  00000+0  94089-5 0  9993
2 48679  53.1599 250.0248 0001043  71.4375 288.6738 15.29360153283060
STARLINK-2725           
1 48681U 21044AV  26194.45438955  .00000731  00000+0  35310-4 0  9999
2 48681  53.1600 210.4590 0000987  95.1348 264.9766 15.31700238283620
STARLINK-2743           
1 48682U 21044AW  26194.40035604  .00000046  00000+0  13246-4 0  9992
2 48682  53.1584 200.0951 0001311  86.8125 273.3026 15.31703328283761
STARLINK-2756           
1 48683U 21044AX  26194.39106338  .00002267  00000+0  84771-4 0  9992
2 48683  53.1566 200.3295 0001162  80.9933 279.1200 15.31714698283762
