OBJECT_NAME,OBJECT_ID,EPOCH,MEAN_MOTION,ECCENTRICITY,INCLINATION,RA_OF_ASC_NODE,ARG_OF_PERICENTER,MEAN_ANOMALY,EPHEMERIS_TYPE,CLASSIFICATION_TYPE,NORAD_CAT_ID,ELEMENT_SET_NO,REV_AT_EPOCH,BSTAR,MEAN_MOTION_DOT,MEAN_MOTION_DDOT
STARLINK-2695,2021-044G,2026-07-13T10:33:59.429952,15.31702339,.0001082,53.1598,248.9511,79.3103,280.8020,0,U,48644,999,28309,.18334E-4,.204E-5,0
STARLINK-2732,2021-044J,2026-07-13T10:00:24.134400,15.31695823,.0001003,53.1585,248.8980,75.5475,284.5637,0,U,48646,999,28309,.47215E-4,.11E-4,0
STARLINK-2521,2021-044L,2026-07-13T11:41:05.675136,15.31697093,.0001356,53.1596,248.6867,82.8062,277.3094,0,U,48648,999,28310,.154E-4,.113E-5,0
STARLINK-2673,2021-044M,2026-07-13T11:14:13.069248,15.31693051,.0001058,53.1588,248.5916,88.1702,271.9420,0,U,48649,999,28309,.38533E-4,.831E-5,0
STARLINK-2672,2021-044N,2026-07-13T11:27:40.630176,15.31689291,.0000979,53.1581,248.6766,114.4961,245.6143,0,U,48650,999,28309,.15738E-4,.123E-5,0
STARLINK-2731,2021-044P,2026-07-13T11:20:57.295104,15.31699914,.0001129,53.1590,248.6969,68.6773,291.4349,0,U,48651,999,28309,.38511E-4,.83E-5,0
STARLINK-2727,2021-044Q,2026-07-13T12:50:15.171648,15.82761046,.0010194,53.0408,218.2697,20.7561,339.3873,0,U,48652,999,28349,.50331E-3,.109506E-2,0
STARLINK-2720,2021-044R,2026-07-13T12:34:46.471008,15.31682320,.000103,53.1592,248.3806,88.7428,271.3692,0,U,48653,999,28310,.97926E-4,.2673E-4,0
STARLINK-2657,2021-044T,2026-07-13T11:07:33.623040,15.31670810,.0005601,53.1603,248.7786,32.5476,327.5870,0,U,48655,999,28309,.18341E-3,.5325E-4,0
STARLINK-2701,2021-044U,2026-07-13T10:40:39.849888,15.31700083,.0001107,53.1601,248.7226,79.6280,280.4846,0,U,48656,999,28309,.57783E-4,.1428E-4,0
STARLINK-2734,2021-044V,2026-07-13T09:20:08.912256,15.31698528,.0001223,53.1593,249.0984,93.0273,267.0869,0,U,48657,999,28308,.55456E-4,.1356E-4,0
STARLINK-2647,2021-044W,2026-07-13T08:46:41.568096,15.31697111,.0001173,53.1599,249.7272,76.4958,283.6174,0,U,48658,999,28307,.83151E-4,.2216E-4,0
STARLINK-2717,2021-044X,2026-07-11T05:12:34.875648,15.31702884,.00008479,53.1599,259.1101,86.8573,273.2526,0,U,48659,999,28275,.23650902E-4,.369E-5,0
STARLINK-2726,2021-044AA,2026-07-13T10:35:14.972064,15.29353054,.000096,53.1570,250.0682,66.3758,293.7343,0,U,48662,999,28306,.31276E-4,.547E-5,0
STARLINK-2667,2021-044AB,2026-07-13T08:43:40.940256,15.31694969,.0001147,53.1583,239.1581,94.4306,265.6826,0,U,48663,999,28322,.307E-4,.588E-5,0
STARLINK-2666,2021-044AE,2026-07-13T10:01:08.530176,15.29371535,.000142,53.1596,250.2576,74.0955,286.0202,0,U,48666,999,28305,.20179E-3,.5474E-4,0
STARLINK-2735,2021-044AF,2026-07-13T10:13:27.651072,15.29365502,.0000892,53.1615,250.1158,105.3851,254.7248,0,U,48667,999,28306,.98799E-4,.2497E-4,0
STARLINK-2738,2021-044AG,2026-07-13T10:10:56.233344,15.31703642,.0001003,53.1591,238.9269,83.4578,276.6538,0,U,48668,999,28323,.19483E-4,.24E-5,0
STARLINK-2707,2021-044AH,2026-07-13T10:24:23.535072,15.31683062,.0001069,53.1589,239.0117,82.3803,277.7320,0,U,48669,999,28322,.11182E-3,.3105E-4,0
STARLINK-2763,2021-044AJ,2026-07-13T12:11:47.800032,15.31693566,.0001095,53.1588,238.7897,86.5350,273.5777,0,U,48670,999,28323,.331E-4,.662E-5,0
STARLINK-2745,2021-044AK,2026-07-13T11:38:16.009728,15.29360290,.0001389,53.1600,249.9431,135.4704,224.6408,0,U,48671,999,28306,-.15112E-5,-.4E-5,0
STARLINK-2705,2021-044AL,2026-07-13T12:18:31.884192,15.31694775,.0001179,53.1592,238.8865,79.3265,280.7869,0,U,48672,999,28323,.38186E-4,.82E-5,0
STARLINK-2711,2021-044AM,2026-07-13T11:25:18.649056,15.29352289,.0001308,53.1552,249.9288,79.9652,280.1496,0,U,48673,999,28306,.21135E-5,-.295E-5,0
STARLINK-2712,2021-044AN,2026-07-13T11:21:33.992640,15.29351295,.0001177,53.1588,249.9827,74.8327,285.2804,0,U,48674,999,28306,.37579E-4,.729E-5,0
STARLINK-2746,2021-044AQ,2026-07-13T09:38:21.430752,15.29347286,.0001025,53.1583,250.3190,72.8167,287.2946,0,U,48676,999,28305,.62465E-4,.1447E-4,0
STARLINK-2615,2021-044AS,2026-07-13T12:05:00.425760,15.31690714,.0001489,53.1570,238.4064,69.5784,290.5377,0,U,48678,999,28324,.27239E-3,.8094E-4,0
STARLINK-2648,2021-044AT,2026-07-13T10:46:51.558240,15.29360153,.0001043,53.1599,250.0248,71.4375,288.6738,0,U,48679,999,28306,.94089E-5,-.84E-6,0
STARLINK-2725,2021-044AV,2026-07-13T10:54:19.257120,15.31700238,.0000987,53.1600,210.4590,95.1348,264.9766,0,U,48681,999,28362,.3531E-4,.731E-5,0
STARLINK-2743,2021-044AW,2026-07-13T09:36:30.761856,15.31703328,.0001311,53.1584,200.0951,86.8125,273.3026,0,U,48682,999,28376,.13246E-4,.46E-6,0
STARLINK-2756,2021-044AX,2026-07-13T09:23:07.876032,15.31714698,.0001162,53.1566,200.3295,80.9933,279.1200,0,U,48683,999,28376,.84771E-4,.2267E-4,0
